NORAD_CAT_ID,OBJECT_NAME,OBJECT_TYPE,EPOCH,MEAN_MOTION,ECCENTRICITY,INCLINATION,RA_OF_ASC_NODE,ARG_OF_PERICENTER,MEAN_ANOMALY,BSTAR,MEAN_MOTION_DOT,MEAN_MOTION_DDOT,TLE_LINE0,TLE_LINE1,TLE_LINE2,SEMIMAJOR_AXIS,PERIOD,APOGEE,PERIGEE,DECAYED
53828.0,STARLINK-4760,PAYLOAD,2022-10-26 22:00:00,15.7324609,0.000181,53.2153,71.3674,35.1504,346.3519,-0.00014874,-0.00021485,0.0,0 STARLINK-4760,1 53828U 22114L   22299.91667824 -.00021485  00000-0 -14874-3 0  9992,2 53828  53.2153  71.3674 0001810  35.1504 346.3519 15.73246090  1305,6727.764,91.53,350.846,348.411,0.0
53828.0,STARLINK-4760,PAYLOAD,2022-10-27 08:00:01,15.73430444,0.000164,53.2166,69.3031,48.6872,173.9964,-0.0042978,-0.00570282,0.0,0 STARLINK-4760,1 53828U 22114L   22300.33334491 -.00570282  00000-0 -42978-2 0  9991,2 53828  53.2166  69.3031 0001640  48.6872 173.9964 15.73430444  6605,6727.238,91.52,350.207,348.0,0.0
53828.0,STARLINK-4760,PAYLOAD,2022-10-27 14:00:01,15.73120542,0.0001684,53.2173,68.0677,46.8256,152.7024,-0.0046203,-0.00602613,0.0,0 STARLINK-4760,1 53828U 22114L   22300.58335648 -.00602613  00000-0 -46203-2 0  9992,2 53828  53.2173  68.0677 0001684  46.8256 152.7024 15.73120542  1308,6728.121999999999,91.538,351.12,348.85400000000016,0.0
53828.0,STARLINK-4760,PAYLOAD,2022-10-27 22:00:00,15.72628312,0.0001651,53.2167,66.4195,30.033,258.0637,-0.008038,-0.00996606,0.0,0 STARLINK-4760,1 53828U 22114L   22300.91667824 -.00996606  00000-0 -80380-2 0  9995,2 53828  53.2167  66.4195 0001651  30.0330 258.0637 15.72628312  1307,6729.526,91.566,352.50199999999984,350.28,0.0
53828.0,STARLINK-4760,PAYLOAD,2022-10-28 00:00:02,15.72522951,0.0001751999999999,53.217,66.007,26.9868,13.1844,-0.0092752999999999,-0.0112905,0.0,0 STARLINK-4760,1 53828U 22114L   22301.00002315 -.01129050  00000-0 -92753-2 0  9993,2 53828  53.2170  66.0070 0001752  26.9868  13.1844 15.72522951  6702,6729.826,91.573,352.87,350.51199999999994,0.0
53828.0,STARLINK-4760,PAYLOAD,2022-10-28 14:00:01,15.71104686,0.0001585,53.2171,63.1265,39.4859,63.3579,-0.0099394,-0.01137635,0.0,0 STARLINK-4760,1 53828U 22114L   22301.58335648 -.01137635  00000-0 -99394-2 0  9990,2 53828  53.2171  63.1265 0001585  39.4859  63.3579 15.71104686  1303,6733.876,91.655,356.80800000000005,354.673,0.0
53828.0,STARLINK-4760,PAYLOAD,2022-10-28 22:00:01,15.70282856,0.0001651,53.2169,61.4835,35.9848,152.7604,-0.010177,-0.01126433,0.0,0 STARLINK-4760,1 53828U 22114L   22301.91668981 -.01126433  00000-0 -10177-1 0  9991,2 53828  53.2169  61.4835 0001651  35.9848 152.7604 15.70282856  6859,6736.225,91.703,359.202,356.978,0.0
53828.0,STARLINK-4760,PAYLOAD,2022-10-29 12:00:00,15.6888732,0.0001519,53.2175,58.6114,43.5473,203.0864,-0.011158,-0.01180274,0.0,0 STARLINK-4760,1 53828U 22114L   22302.50001157 -.01180274  00000-0 -11158-1 0  9996,2 53828  53.2175  58.6114 0001519  43.5473 203.0864 15.68887320  1303,6740.219,91.785,363.108,361.06,0.0
53828.0,STARLINK-4760,PAYLOAD,2022-10-29 22:00:01,15.67838315,0.0001599,53.2172,56.5647,33.8486,46.725,-0.011196,-0.0113832,0.0,0 STARLINK-4760,1 53828U 22114L   22302.91668981 -.01138320  00000-0 -11196-1 0  9992,2 53828  53.2172  56.5647 0001599  33.8486  46.7250 15.67838315  1302,6743.225,91.846,366.168,364.012,0.0
53828.0,STARLINK-4760,PAYLOAD,2022-10-30 00:00:00,15.67636404,0.0001595999999999,53.2174,56.1552,41.7792,149.3172,-0.011321,-0.01141214,0.0,0 STARLINK-4760,1 53828U 22114L   22303.00001157 -.01141214  00000-0 -11321-1 0  9995,2 53828  53.2174  56.1552 0001596  41.7792 149.3172 15.67636404  7023,6743.804,91.858,366.745,364.593,0.0
53828.0,STARLINK-4760,PAYLOAD,2022-10-30 14:00:01,15.66209143,9.5e-05,53.2172,53.2961,28.9085,214.5966,-0.011943,-0.01136031,0.0,0 STARLINK-4760,1 53828U 22114L   22303.58334491 -.01136031  00000-0 -11943-1 0  9999,2 53828  53.2172  53.2961 0000950  28.9085 214.5966 15.66209143  1304,6747.901,91.942,370.407,369.124,0.0
53828.0,STARLINK-4760,PAYLOAD,2022-10-30 22:00:01,15.65430516,0.0001373,53.2168,51.6645,45.0371,278.547,-0.0129,-0.01184027,0.0,0 STARLINK-4760,1 53828U 22114L   22303.91668981 -.01184027  00000-0 -12900-1 0  9992,2 53828  53.2168  51.6645 0001373  45.0371 278.5470 15.65430516  1307,6750.138000000001,91.987,372.93,371.076,0.0
53828.0,STARLINK-4760,PAYLOAD,2022-10-31 14:00:01,15.63792887,0.0001520999999999,53.2173,48.4076,49.0512,71.6003,-0.013577,-0.01168748,0.0,0 STARLINK-4760,1 53828U 22114L   22304.58334491 -.01168748  00000-0 -13577-1 0  9995,2 53828  53.2173  48.4076 0001521  49.0512  71.6003 15.63792887  1305,6754.85,92.084,377.742,375.687,0.0
53828.0,STARLINK-4760,PAYLOAD,2022-10-31 22:00:01,15.62960759,0.0001659,53.217,46.7815,37.8421,159.9812,-0.013708,-0.01144348,0.0,0 STARLINK-4760,1 53828U 22114L   22304.91668981 -.01144348  00000-0 -13708-1 0  9992,2 53828  53.2170  46.7815 0001659  37.8421 159.9812 15.62960759  1302,6757.246999999999,92.133,380.233,377.991,0.0
53828.0,STARLINK-4760,PAYLOAD,2022-11-01 14:00:01,15.61340287,0.0001375999999999,53.2174,43.5368,44.4392,304.5764,-0.014736,-0.01153344,0.0,0 STARLINK-4760,1 53828U 22114L   22305.58334491 -.01153344  00000-0 -14736-1 0  9990,2 53828  53.2174  43.5368 0001376  44.4392 304.5764 15.61340287  1302,6761.922,92.228,384.717,382.856,0.0
53828.0,STARLINK-4760,PAYLOAD,2022-11-01 22:00:00,15.60538654,0.0001708,53.2168,41.9166,31.1502,32.0237,-0.015427,-0.01168873,0.0,0 STARLINK-4760,1 53828U 22114L   22305.91667824 -.01168873  00000-0 -15427-1 0  9997,2 53828  53.2168  41.9166 0001708  31.1502  32.0237 15.60538654  7487,6764.236999999999,92.276,387.257,384.947,0.0
53828.0,STARLINK-4760,PAYLOAD,2022-11-02 14:00:01,15.58885578,0.0001768,53.2173,38.6839,39.096,169.4829,-0.015877,-0.01132678,0.0,0 STARLINK-4760,1 53828U 22114L   22306.58334491 -.01132678  00000-0 -15877-1 0  9995,2 53828  53.2173  38.6839 0001768  39.0960 169.4829 15.58885578  1308,6769.018,92.374,392.08,389.686,0.0
53828.0,STARLINK-4760,PAYLOAD,2022-11-02 22:00:00,15.58073983,0.0001419,53.2173,37.0692,44.8908,234.9183,-0.0164349999999999,-0.01136299,0.0,0 STARLINK-4760,1 53828U 22114L   22306.91667824 -.01136299  00000-0 -16435-1 0  9995,2 53828  53.2173  37.0692 0001419  44.8908 234.9183 15.58073983  1307,6771.369000000002,92.422,394.194,392.273,0.0
53828.0,STARLINK-4760,PAYLOAD,2022-11-03 08:00:01,15.57054001,0.0001851,53.2175,35.0542,32.1349,65.3382,-0.016994,-0.0113121,0.0,0 STARLINK-4760,1 53828U 22114L   22307.33334491 -.01131210  00000-0 -16994-1 0  9991,2 53828  53.2175  35.0542 0001851  32.1349  65.3382 15.57054001  7706,6774.325,92.482,397.444,394.937,0.0
53828.0,STARLINK-4760,PAYLOAD,2022-11-03 14:00:01,15.56449851,0.0001675,53.2175,33.8484,33.7695,25.5643,-0.0175379999999999,-0.01140209,0.0,0 STARLINK-4760,1 53828U 22114L   22307.58334491 -.01140209  00000-0 -17538-1 0  9991,2 53828  53.2175  33.8484 0001675  33.7695  25.5643 15.56449851  1300,6776.078,92.518,399.078,396.8080000000001,0.0
53828.0,STARLINK-4760,PAYLOAD,2022-11-03 22:00:00,15.556309400000002,0.0001713,53.2174,32.2395,36.6414,90.992,-0.0179439999999999,-0.01132311,0.0,0 STARLINK-4760,1 53828U 22114L   22307.91667824 -.01132311  00000-0 -17944-1 0  9993,2 53828  53.2174  32.2395 0001713  36.6414  90.9920 15.55630940  1301,6778.456,92.567,401.482,399.16,0.0
53828.0,STARLINK-4760,PAYLOAD,2022-11-04 06:00:00,15.54816324,0.000166,53.2176,30.6329,44.03100000000001,150.9213,-0.018443,-0.01129426,0.0,0 STARLINK-4760,1 53828U 22114L   22308.25001157 -.01129426  00000-0 -18443-1 0  9990,2 53828  53.2176  30.6329 0001660  44.0310 150.9213 15.54816324  7849,6780.824000000001,92.615,403.814,401.56300000000016,0.0
53828.0,STARLINK-4760,PAYLOAD,2022-11-04 14:00:01,15.54003222,0.0001636,53.2175,29.0309,41.7341,219.5581,-0.019037,-0.01131168,0.0,0 STARLINK-4760,1 53828U 22114L   22308.58334491 -.01131168  00000-0 -19037-1 0  9992,2 53828  53.2175  29.0309 0001636  41.7341 219.5581 15.54003222  1309,6783.189,92.664,406.163,403.944,0.0
53828.0,STARLINK-4760,PAYLOAD,2022-11-04 22:00:01,15.53191539,0.0001479,53.2171,27.4275,37.4123,289.3081,-0.019688,-0.01135085,0.0,0 STARLINK-4760,1 53828U 22114L   22308.91668981 -.01135085  00000-0 -19688-1 0  9997,2 53828  53.2171  27.4275 0001479  37.4123 289.3081 15.53191539  7948,6785.552,92.712,408.42,406.413,0.0
53828.0,STARLINK-4760,PAYLOAD,2022-11-05 14:00:01,15.51565655,0.0001551,53.2173,24.2307,40.2823,54.2288,-0.020906,-0.0113611,0.0,0 STARLINK-4760,1 53828U 22114L   22309.58335648 -.01136110  00000-0 -20906-1 0  9997,2 53828  53.2173  24.2307 0001551  40.2823  54.2288 15.51565655  1305,6790.291,92.809,413.209,411.103,0.0
53828.0,STARLINK-4760,PAYLOAD,2022-11-05 22:00:01,15.50654117,0.0001744,53.2171,22.6334,30.0383,126.9096,-0.015122,-0.00809176,0.0,0 STARLINK-4760,1 53828U 22114L   22309.91668981 -.00809176  00000-0 -15122-1 0  9995,2 53828  53.2171  22.6334 0001744  30.0383 126.9096 15.50654117  8107,6792.9519999999975,92.864,416.002,413.632,0.0
53828.0,STARLINK-4760,PAYLOAD,2022-11-06 06:00:00,15.49961414,0.000164,53.217,21.0385,330.2804,248.0926,-0.0021527,-0.00121089,0.0,0 STARLINK-4760,1 53828U 22114L   22310.25001157 -.00121089  00000-0 -21527-2 0  9997,2 53828  53.2170  21.0385 0001640 330.2804 248.0926 15.49961414  8155,6794.976,92.906,417.955,415.726,0.0
53828.0,STARLINK-4760,PAYLOAD,2022-11-06 14:00:01,15.49952154,0.0001876,53.2159,19.4471,37.3652,241.972,-0.00078295,-0.00044743,0.0,0 STARLINK-4760,1 53828U 22114L   22310.58334491 -.00044743  00000-0 -78295-3 0  9999,2 53828  53.2159  19.4471 0001876  37.3652 241.9720 15.49952154  1301,6795.003000000002,92.906,418.143,415.593,0.0
53828.0,STARLINK-4760,PAYLOAD,2022-11-07 08:00:01,15.49748168,0.0001996,53.2174,15.8613,39.6907,106.6973,-0.01702,-0.00875428,0.0,0 STARLINK-4760,1 53828U 22114L   22311.33334491 -.00875428  00000-0 -17020-1 0  9992,2 53828  53.2174  15.8613 0001996  39.6907 106.6973 15.49748168  8321,6795.599,92.918,418.821,416.108,0.0
